CRE (WAAS/PRN 138)      
1 28868U 05036A   24013.13437407 -.00000067  00000+0  00000+0 0  9997
2 28868   2.0293  87.5437 0001379 229.4944  96.1217  1.00266042 67277
IOR-W (EGNOS/PRN 126)   
1 28899U 05044A   24012.96936750 -.00000254  00000+0  00000+0 0  9993
2 28899   4.0165  41.7782 0001925 261.1025 301.4782  1.00272190 66613
QZS-1 (QZSS/PRN 183)    
1 37158U 10045A   24012.81396295 -.00000022  00000+0  00000+0 0  9999
2 37158  43.0492 126.2038 0003249 147.1311 214.7200  0.87714538 48625
GSAT-8 (GAGAN/PRN 127)  
1 37605U 11022A   24012.85882845  .00000094  00000+0  00000+0 0  9995
2 37605   0.0666 262.4147 0008392   7.6679 205.9956  1.00272289 44335
LUCH 5A (SDCM/PRN 140)  
1 37951U 11074B   24012.90244699 -.00000045  00000+0  00000+0 0  9998
2 37951   6.4807  87.5273 0002872 195.7918 320.2794  1.00271666 44164
SES-5 (EGNOS/PRN 136)   
1 38652U 12036A   24012.67896719  .00000043  00000+0  00000+0 0  9993
2 38652   0.0305 334.7771 0001726 309.2406  77.0398  1.00270784 35591
GSAT-10 (GAGAN/PRN 128) 
1 38779U 12051B   24012.88575675 -.00000156  00000+0  00000+0 0  9994
2 38779   0.0146 342.0961 0004611 289.3119 242.3375  1.00270945 41231
LUCH 5B (SDCM/PRN 125)  
1 38977U 12061A   24012.86600258 -.00000131  00000+0  00000+0 0  9992
2 38977   8.5437  58.0566 0003044 176.9511 172.2853  1.00271111 40729
ASTRA 5B (EGNOS/PRN 123)
1 39617U 14011B   24012.87392164  .00000146  00000+0  00000+0 0  9991
2 39617   0.0655 309.8083 0004380 342.9389 157.1880  1.00271647 35789
LUCH 5V (SDCM/PRN 141)  
1 39727U 14023A   24012.81648663 -.00000261  00000+0  00000+0 0  9997
2 39727   2.9067  76.8604 0003769 225.0349 198.5365  1.00268495 35476
GSAT-15 (GAGAN/PRN 139) 
1 41028U 15065A   24013.10269781 -.00000249  00000+0  00000+0 0  9990
2 41028   0.1117 268.0594 0001838 328.0234   6.4410  1.00269748 29972
E 117 W B (WAAS/PRN 131)
1 41589U 16038B   24012.70274785 -.00000002  00000+0  00000+0 0  9995
2 41589   0.0102 165.6965 0000127 131.9590 310.0220  1.00272384 27776
SES-15 (WAAS/PRN 133)   
1 42709U 17026A   24012.70031120  .00000070  00000+0  00000+0 0  9996
2 42709   0.0198  34.3434 0000095 283.5282 276.7544  1.00268432 25252
QZS-2 (QZSS/PRN 184)    
1 42738U 17028A   24012.97093391 -.00000099  00000+0  00000+0 0  9999
2 42738  40.8255 255.9947 0754132 269.7556  77.4305  1.00277627 24243
QZS-3 (QZSS/PRN 189)    
1 42917U 17048A   24012.82292631 -.00000339  00000+0  00000+0 0  9999
2 42917   0.0742 223.9385 0002386  75.2282 235.9133  1.00273453 23371
QZS-4 (QZSS/PRN 185)    
1 42965U 17062A   24012.82301333 -.00000313  00000+0  00000+0 0  9990
2 42965  40.5827 354.7758 0751466 268.5635 281.0859  1.00297905 22928
BEIDOU-3 G1 (PRN 130)   
1 43683U 18085A   24012.82544997 -.00000270  00000+0  00000+0 0  9991
2 43683   1.8156 116.6101 0002068 335.5556  96.7241  1.00276311 19179
BEIDOU-3 G2 (PRN 144)   
1 45344U 20017A   24013.10000010 -.00000133  00000+0  00000+0 0  9998
2 45344   2.1460  22.8856 0002891 252.8965 312.3261  1.00271448 14384
BEIDOU-3 G3 (PRN 143)   
1 45807U 20040A   24012.89123920 -.00000345  00000+0  00000+0 0  9994
2 45807   0.5897  14.2844 0009017 300.2701 228.7351  1.00272546 13186
GALAXY 30 (WAAS/PRN 135)
1 46114U 20056C   24012.70092037  .00000047  00000+0  00000+0 0  9995
2 46114   0.0218  54.3949 0001852 239.2943 305.3393  1.00271217 12405
